NORAD_CAT_ID,OBJECT_NAME,OBJECT_TYPE,EPOCH,MEAN_MOTION,ECCENTRICITY,INCLINATION,RA_OF_ASC_NODE,ARG_OF_PERICENTER,MEAN_ANOMALY,BSTAR,MEAN_MOTION_DOT,MEAN_MOTION_DDOT,TLE_LINE0,TLE_LINE1,TLE_LINE2,SEMIMAJOR_AXIS,PERIOD,APOGEE,PERIGEE,DECAYED
53864.0,STARLINK-4779,PAYLOAD,2024-01-22 09:35:43,15.08838254,0.0001441,53.2156,173.0772,90.3447,269.771,0.00018213,2.612e-05,0.0,0 STARLINK-4779,1 53864U 22114AY  24022.39981378  .00002612  00000-0  18213-3 0  9993,2 53864  53.2156 173.0772 0001441  90.3447 269.7710 15.08838254 75237,6917.886,95.438,540.748,538.754,0.0
53864.0,STARLINK-4779,PAYLOAD,2024-01-22 17:32:39,15.08845109,0.0001404,53.215,171.59,83.2725,276.8427,0.00018244,2.617e-05,0.0,0 STARLINK-4779,1 53864U 22114AY  24022.73101128  .00002617  00000-0  18244-3 0  9997,2 53864  53.2150 171.5900 0001404  83.2725 276.8427 15.08845109 75822,6917.865,95.437,540.701,538.759,0.0
53864.0,STARLINK-4779,PAYLOAD,2024-01-23 15:48:02,15.08851748,0.0001413,53.215,167.4266,87.4556,272.6598,0.00014951,2.093e-05,0.0,0 STARLINK-4779,1 53864U 22114AY  24023.65836646  .00002093  00000-0  14951-3 0  9998,2 53864  53.2150 167.4266 0001413  87.4556 272.6598 15.08851748 75424,6917.844,95.437,540.687,538.732,0.0
53864.0,STARLINK-4779,PAYLOAD,2024-01-24 12:28:04,15.08841099,0.0001488,53.2158,163.5623,96.5992,263.5169,-5.5053e-06,-3.76e-06,0.0,0 STARLINK-4779,1 53864U 22114AY  24024.51949157 -.00000376  00000-0 -55053-5 0  9990,2 53864  53.2158 163.5623 0001488  96.5992 263.5169 15.08841099 75558,6917.877,95.437,540.771,538.713,0.0
53864.0,STARLINK-4779,PAYLOAD,2024-01-24 14:03:27,15.08835637,0.0001466,53.2149,163.265,85.4776,274.6383,1.7022e-05,-1.7e-07,0.0,0 STARLINK-4779,1 53864U 22114AY  24024.58573526 -.00000017  00000-0  17022-4 0  9994,2 53864  53.2149 163.2650 0001466  85.4776 274.6383 15.08835637 76102,6917.894,95.438,540.773,538.745,0.0
53864.0,STARLINK-4779,PAYLOAD,2024-01-24 15:38:50,15.08836039,0.0001487,53.215,162.9665,84.8997,275.2165,-3.6098e-06,-3.45e-06,0.0,0 STARLINK-4779,1 53864U 22114AY  24024.65197506 -.00000345  00000-0 -36098-5 0  9992,2 53864  53.2150 162.9665 0001487  84.8997 275.2165 15.08836039 76110,6917.892,95.438,540.786,538.729,0.0
53864.0,STARLINK-4779,PAYLOAD,2024-01-25 13:54:14,15.08843353,0.0001322,53.2172,158.8099,96.8685,263.2458,-4.0651e-05,-9.35e-06,0.0,0 STARLINK-4779,1 53864U 22114AY  24025.57933626 -.00000935  00000-0 -40651-4 0  9999,2 53864  53.2172 158.8099 0001322  96.8685 263.2458 15.08843353 76258,6917.87,95.437,540.65,538.821,0.0
53864.0,STARLINK-4779,PAYLOAD,2024-01-25 15:29:37,15.08844897,0.0001462,53.2175,158.5111,105.4976,254.6178,-1.1643e-05,-4.73e-06,0.0,0 STARLINK-4779,1 53864U 22114AY  24025.64557394 -.00000473  00000-0 -11643-4 0  9997,2 53864  53.2175 158.5111 0001462 105.4976 254.6178 15.08844897 75726,6917.865,95.437,540.742,538.719,0.0
53864.0,STARLINK-4779,PAYLOAD,2024-01-26 13:45:01,15.08842234,0.0001491,53.2184,154.3509,103.3878,256.728,0.00018473,2.653e-05,0.0,0 STARLINK-4779,1 53864U 22114AY  24026.57293268  .00002653  00000-0  18473-3 0  9994,2 53864  53.2184 154.3509 0001491 103.3878 256.7280 15.08842234 76407,6917.874,95.437,540.77,538.707,0.0
53864.0,STARLINK-4779,PAYLOAD,2024-01-27 13:35:49,15.08840351,0.0001369,53.218,149.8883,95.2701,264.8447,7.3291e-05,8.79e-06,0.0,0 STARLINK-4779,1 53864U 22114AY  24027.56653991  .00000879  00000-0  73291-4 0  9995,2 53864  53.2180 149.8883 0001369  95.2701 264.8447 15.08840351 76015,6917.879,95.438,540.691,538.797,0.0
53864.0,STARLINK-4779,PAYLOAD,2024-01-28 13:26:36,15.08842213,0.0001247,53.2167,145.4236,86.0368,274.0767,-5.6111e-05,-1.181e-05,0.0,0 STARLINK-4779,1 53864U 22114AY  24028.56014315 -.00001181  00000-0 -56111-4 0  9998,2 53864  53.2167 145.4236 0001247  86.0368 274.0767 15.08842213 76709,6917.874,95.437,540.601,538.876,0.0
53864.0,STARLINK-4779,PAYLOAD,2024-01-28 16:37:22,15.0884249,0.0001344,53.2176,144.8312,99.3535,260.761,-7.294e-06,-4.04e-06,0.0,0 STARLINK-4779,1 53864U 22114AY  24028.69262156 -.00000404  00000-0 -72940-5 0  9996,2 53864  53.2176 144.8312 0001344  99.3535 260.7610 15.08842490 76186,6917.873,95.437,540.668,538.808,0.0
53864.0,STARLINK-4779,PAYLOAD,2024-01-29 11:42:00,15.08840574,0.0001361,53.2174,141.2623,85.7912,274.3235,0.00013327,1.834e-05,0.0,0 STARLINK-4779,1 53864U 22114AY  24029.48750124  .00001834  00000-0  13327-3 0  9999,2 53864  53.2174 141.2623 0001361  85.7912 274.3235 15.08840574 76845,6917.879,95.438,540.685,538.802,0.0
53864.0,STARLINK-4779,PAYLOAD,2024-01-30 11:32:47,15.08839644,0.0001355,53.2176,136.8,81.4346,278.68,9.1847e-05,1.174e-05,0.0,0 STARLINK-4779,1 53864U 22114AY  24030.48110467  .00001174  00000-0  91847-4 0  9992,2 53864  53.2176 136.8000 0001355  81.4346 278.6800 15.08839644 76451,6917.881,95.438,540.684,538.809,0.0
53864.0,STARLINK-4779,PAYLOAD,2024-01-30 14:43:33,15.08842158,0.0001412,53.2177,136.2052,79.9148,280.2004,0.00011104,1.48e-05,0.0,0 STARLINK-4779,1 53864U 22114AY  24030.61358289  .00001480  00000-0  11104-3 0  9990,2 53864  53.2177 136.2052 0001412  79.9148 280.2004 15.08842158 77011,6917.874,95.437,540.716,538.762,0.0
53864.0,STARLINK-4779,PAYLOAD,2024-01-31 11:23:34,15.08839253,0.0001535,53.2174,132.3395,77.9646,282.1518,6.4566e-05,7.4e-06,0.0,0 STARLINK-4779,1 53864U 22114AY  24031.47470582  .00000740  00000-0  64566-4 0  9995,2 53864  53.2174 132.3395 0001535  77.9646 282.1518 15.08839253 77149,6917.883,95.438,540.81,538.686,0.0
53864.0,STARLINK-4779,PAYLOAD,2024-01-31 16:09:43,15.08841383,0.000154,53.2174,131.4433,85.589,274.5278,0.00010067,1.315e-05,0.0,0 STARLINK-4779,1 53864U 22114AY  24031.67342289  .00001315  00000-0  10067-3 0  9994,2 53864  53.2174 131.4433 0001540  85.5890 274.5278 15.08841383 76632,6917.876,95.437,540.807,538.676,0.0
53864.0,STARLINK-4779,PAYLOAD,2024-02-01 11:14:23,15.08747034,0.0001951,53.2162,127.8736,88.7093,271.4123,0.0013445,0.0002112,0.0,0 STARLINK-4779,1 53864U 22114AY  24032.46832881  .00021120  00000-0  13445-2 0  9992,2 53864  53.2162 127.8736 0001951  88.7093 271.4123 15.08747034 76756,6918.165,95.443,541.379,538.68,0.0
53864.0,STARLINK-4779,PAYLOAD,2024-02-01 14:25:07,15.08842172,0.0001522,53.217,127.2798,109.0289,251.0868,8.4059e-06,-1.54e-06,0.0,0 STARLINK-4779,1 53864U 22114AY  24032.60078336 -.00000154  00000-0  84059-5 0  9992,2 53864  53.2170 127.2798 0001522 109.0289 251.0868 15.08842172 76776,6917.874,95.437,540.792,538.686,0.0
53864.0,STARLINK-4779,PAYLOAD,2024-02-02 12:40:31,15.08843592,0.0001656,53.218,123.1155,107.2698,252.8475,8.0061e-05,9.86e-06,0.0,0 STARLINK-4779,1 53864U 22114AY  24033.52814005  .00000986  00000-0  80061-4 0  9995,2 53864  53.2180 123.1155 0001656 107.2698 252.8475 15.08843592 77457,6917.869,95.437,540.88,538.589,0.0
53864.0,STARLINK-4779,PAYLOAD,2024-02-02 15:51:17,15.08843575,0.0001658,53.2179,122.5214,106.934,253.1834,7.4997e-05,9.06e-06,0.0,0 STARLINK-4779,1 53864U 22114AY  24033.66062000  .00000906  00000-0  74997-4 0  9993,2 53864  53.2179 122.5214 0001658 106.9340 253.1834 15.08843575 76932,6917.869,95.437,540.881,538.587,0.0
53864.0,STARLINK-4779,PAYLOAD,2024-02-03 10:55:55,15.08837438,0.0001641,53.2179,118.9529,98.7458,261.372,4.081e-05,3.61e-06,0.0,0 STARLINK-4779,1 53864U 22114AY  24034.45550683  .00000361  00000-0  40810-4 0  9992,2 53864  53.2179 118.9529 0001641  98.7458 261.3720 15.08837438 77599,6917.888,95.438,540.888,538.618,0.0
53864.0,STARLINK-4779,PAYLOAD,2024-02-04 10:46:42,15.08844945,0.0001474,53.2176,114.4968,94.1653,265.9508,2.95e-05,1.82e-06,0.0,0 STARLINK-4779,1 53864U 22114AY  24035.44910432  .00000182  00000-0  29500-4 0  9998,2 53864  53.2176 114.4968 0001474  94.1653 265.9508 15.08844945 77747,6917.865,95.437,540.75,538.711,0.0
53864.0,STARLINK-4779,PAYLOAD,2024-02-05 12:12:53,15.0884135,0.0001495,53.2173,109.7399,81.0462,279.07,9.8243e-05,1.276e-05,0.0,0 STARLINK-4779,1 53864U 22114AY  24036.50894769  .00001276  00000-0  98243-4 0  9995,2 53864  53.2173 109.7399 0001495  81.0462 279.0700 15.08841350 77360,6917.876,95.437,540.775,538.707,0.0
53864.0,STARLINK-4779,PAYLOAD,2024-02-06 12:03:40,15.08842692,0.0001807,53.2181,105.2797,69.326,290.7926,0.00010642,1.406e-05,0.0,0 STARLINK-4779,1 53864U 22114AY  24037.50254902  .00001406  00000-0  10642-3 0  9996,2 53864  53.2181 105.2797 0001807  69.3260 290.7926 15.08842692 78051,6917.872,95.437,540.987,538.487,0.0
53864.0,STARLINK-4779,PAYLOAD,2024-02-07 03:57:31,15.08843685,0.0001831,53.2171,102.3101,61.7005,298.4172,6.2885e-05,7.13e-06,0.0,0 STARLINK-4779,1 53864U 22114AY  24038.16495037  .00000713  00000-0  62885-4 0  9992,2 53864  53.2171 102.3101 0001831  61.7005 298.4172 15.08843685 77619,6917.869,95.437,541.001,538.467,0.0
53864.0,STARLINK-4779,PAYLOAD,2024-02-07 11:54:26,15.08847884,0.0001531,53.2172,100.8193,82.3968,277.7198,7.9393e-05,9.76e-06,0.0,0 STARLINK-4779,1 53864U 22114AY  24038.49614526  .00000976  00000-0  79393-4 0  9997,2 53864  53.2172 100.8193 0001531  82.3968 277.7198 15.08847884 78207,6917.856,95.437,540.78,538.662,0.0
53864.0,STARLINK-4779,PAYLOAD,2024-02-08 10:09:51,15.0883759,0.0001481,53.2177,96.6575,82.8015,277.3145,1.4281e-05,-6.1e-07,0.0,0 STARLINK-4779,1 53864U 22114AY  24039.42351585 -.00000061  00000-0  14281-4 0  9995,2 53864  53.2177  96.6575 0001481  82.8015 277.3145 15.08837590 77806,6917.888,95.438,540.777,538.728,0.0
53864.0,STARLINK-4779,PAYLOAD,2024-02-08 13:20:37,15.08845188,0.0001432,53.2168,96.0597,94.3872,265.7284,1.3916e-05,-6.6e-07,0.0,0 STARLINK-4779,1 53864U 22114AY  24039.55598989 -.00000066  00000-0  13916-4 0  9999,2 53864  53.2168  96.0597 0001432  94.3872 265.7284 15.08845188 78368,6917.865,95.437,540.72,538.739,0.0
53864.0,STARLINK-4779,PAYLOAD,2024-02-09 10:00:38,15.08845883,0.0001499,53.2165,92.1935,98.936,261.1802,6.5964e-05,7.62e-06,0.0,0 STARLINK-4779,1 53864U 22114AY  24040.41710913  .00000762  00000-0  65964-4 0  9991,2 53864  53.2165  92.1935 0001499  98.9360 261.1802 15.08845883 78495,6917.862,95.437,540.764,538.69,0.0
